{"fetched_at":"2026-03-29T16:36:15Z","count":15609,"tles":[{"name":"STARLINK-5509","line1":"1 57263U 23094AX  26087.82173812 -.00000262  00000+0 -91064-7 0  9994","line2":"2 57263  43.0012 282.4829 0001300 272.4801  87.5901 15.26741418150047","category":"Starlink"}]}